{"fetched_at":"2026-07-12T17:32:25.735Z","source":"https://celestrak.org/NORAD/elements/gp.php?GROUP=planet&FORMAT=JSON","constellation":"superdove","records":[{"OBJECT_NAME":"FLOCK 4BE-3","OBJECT_ID":"2024-149CX","EPOCH":"2026-07-11T19:22:02.671968","CLASSIFICATION_TYPE":"U","MEAN_MOTION":15.42318303,"ECCENTRICITY":0.00045759,"INCLINATION":97.3699,"RA_OF_ASC_NODE":276.9663,"ARG_OF_PERICENTER":178.8358,"MEAN_ANOMALY":181.2901,"EPHEMERIS_TYPE":0,"NORAD_CAT_ID":60561,"ELEMENT_SET_NO":999,"REV_AT_EPOCH":10613,"BSTAR":0.00025410075,"MEAN_MOTION_DOT":0.00010865,"MEAN_MOTION_DDOT":0},{"OBJECT_NAME":"FLOCK 4BE-19","OBJECT_ID":"2024-149CZ","EPOCH":"2026-07-11T19:17:06.594720","CLASSIFICATION_TYPE":"U","MEAN_MOTION":15.4553254,"ECCENTRICITY":0.00055971,"INCLINATION":97.3739,"RA_OF_ASC_NODE":278.6278,"ARG_OF_PERICENTER":184.0624,"MEAN_ANOMALY":176.058,"EPHEMERIS_TYPE":0,"NORAD_CAT_ID":60563,"ELEMENT_SET_NO":999,"REV_AT_EPOCH":10622,"BSTAR":0.00031016148,"MEAN_MOTION_DOT":0.00014817,"MEAN_MOTION_DDOT":0},{"OBJECT_NAME":"FLOCK 4G-8","OBJECT_ID":"2025-009E","EPOCH":"2026-07-12T04:47:39.060096","CLASSIFICATION_TYPE":"U","MEAN_MOTION":15.30205079,"ECCENTRICITY":0.00036632,"INCLINATION":97.401,"RA_OF_ASC_NODE":275.1058,"ARG_OF_PERICENTER":203.3541,"MEAN_ANOMALY":156.7534,"EPHEMERIS_TYPE":0,"NORAD_CAT_ID":62613,"ELEMENT_SET_NO":999,"REV_AT_EPOCH":8274,"BSTAR":0.00020072581,"MEAN_MOTION_DOT":0.0000579,"MEAN_MOTION_DDOT":0},{"OBJECT_NAME":"FLOCK 4G-13","OBJECT_ID":"2025-009N","EPOCH":"2026-07-11T19:16:16.392864","CLASSIFICATION_TYPE":"U","MEAN_MOTION":15.48502962,"ECCENTRICITY":0.00061982,"INCLINATION":97.395,"RA_OF_ASC_NODE":276.5753,"ARG_OF_PERICENTER":206.6212,"MEAN_ANOMALY":153.4721,"EPHEMERIS_TYPE":0,"NORAD_CAT_ID":62621,"ELEMENT_SET_NO":999,"REV_AT_EPOCH":8280,"BSTAR":0.00092463014,"MEAN_MOTION_DOT":0.0004935,"MEAN_MOTION_DDOT":0},{"OBJECT_NAME":"FLOCK 4G-9","OBJECT_ID":"2025-009P","EPOCH":"2026-07-11T18:15:34.904160","CLASSIFICATION_TYPE":"U","MEAN_MOTION":15.28471377,"ECCENTRICITY":0.00037225,"INCLINATION":97.3961,"RA_OF_ASC_NODE":273.534,"ARG_OF_PERICENTER":219.0607,"MEAN_ANOMALY":141.0364,"EPHEMERIS_TYPE":0,"NORAD_CAT_ID":62622,"ELEMENT_SET_NO":999,"REV_AT_EPOCH":8261,"BSTAR":0.00019958915,"MEAN_MOTION_DOT":0.00005456,"MEAN_MOTION_DDOT":0},{"OBJECT_NAME":"FLOCK 4G-7","OBJECT_ID":"2025-009R","EPOCH":"2026-07-12T04:23:41.390016","CLASSIFICATION_TYPE":"U","MEAN_MOTION":15.29800472,"ECCENTRICITY":0.00022754,"INCLINATION":97.3945,"RA_OF_ASC_NODE":274.3645,"ARG_OF_PERICENTER":190.7418,"MEAN_ANOMALY":169.3775,"EPHEMERIS_TYPE":0,"NORAD_CAT_ID":62624,"ELEMENT_SET_NO":999,"REV_AT_EPOCH":8272,"BSTAR":0.00023431078,"MEAN_MOTION_DOT":0.00006687,"MEAN_MOTION_DDOT":0},{"OBJECT_NAME":"FLOCK 4G-12","OBJECT_ID":"2025-009S","EPOCH":"2026-07-12T04:16:36.288192","CLASSIFICATION_TYPE":"U","MEAN_MOTION":15.29732221,"ECCENTRICITY":0.00038683,"INCLINATION":97.4024,"RA_OF_ASC_NODE":274.9065,"ARG_OF_PERICENTER":199.0506,"MEAN_ANOMALY":161.059,"EPHEMERIS_TYPE":0,"NORAD_CAT_ID":62625,"ELEMENT_SET_NO":999,"REV_AT_EPOCH":8272,"BSTAR":0.00023297497,"MEAN_MOTION_DOT":0.00006635,"MEAN_MOTION_DDOT":0},{"OBJECT_NAME":"FLOCK 4G-11","OBJECT_ID":"2025-009W","EPOCH":"2026-07-12T03:55:07.010112","CLASSIFICATION_TYPE":"U","MEAN_MOTION":15.29842005,"ECCENTRICITY":0.00023259,"INCLINATION":97.3926,"RA_OF_ASC_NODE":274.4537,"ARG_OF_PERICENTER":194.6112,"MEAN_ANOMALY":165.5062,"EPHEMERIS_TYPE":0,"NORAD_CAT_ID":62629,"ELEMENT_SET_NO":999,"REV_AT_EPOCH":8273,"BSTAR":0.00024779868,"MEAN_MOTION_DOT":0.00007086,"MEAN_MOTION_DDOT":0},{"OBJECT_NAME":"FLOCK 4G-26","OBJECT_ID":"2025-009AA","EPOCH":"2026-07-12T04:15:12.086208","CLASSIFICATION_TYPE":"U","MEAN_MOTION":15.30026524,"ECCENTRICITY":0.00033388,"INCLINATION":97.4021,"RA_OF_ASC_NODE":275.0655,"ARG_OF_PERICENTER":187.579,"MEAN_ANOMALY":172.54,"EPHEMERIS_TYPE":0,"NORAD_CAT_ID":62633,"ELEMENT_SET_NO":999,"REV_AT_EPOCH":8273,"BSTAR":0.00024321701,"MEAN_MOTION_DOT":0.00006993,"MEAN_MOTION_DDOT":0},{"OBJECT_NAME":"FLOCK 4G-28","OBJECT_ID":"2025-009AB","EPOCH":"2026-07-12T11:29:48.931584","CLASSIFICATION_TYPE":"U","MEAN_MOTION":15.35251499,"ECCENTRICITY":0.000186,"INCLINATION":97.403,"RA_OF_ASC_NODE":278.1294,"ARG_OF_PERICENTER":168.3989,"MEAN_ANOMALY":191.7297,"EPHEMERIS_TYPE":0,"NORAD_CAT_ID":62634,"ELEMENT_SET_NO":999,"REV_AT_EPOCH":8296,"BSTAR":0.00016536,"MEAN_MOTION_DOT":0.00005578,"MEAN_MOTION_DDOT":0},{"OBJECT_NAME":"FLOCK 4G-20","OBJECT_ID":"2025-009AD","EPOCH":"2026-07-12T03:59:00.665952","CLASSIFICATION_TYPE":"U","MEAN_MOTION":15.59898255,"ECCENTRICITY":0.0005944,"INCLINATION":97.3857,"RA_OF_ASC_NODE":278.4657,"ARG_OF_PERICENTER":213.4771,"MEAN_ANOMALY":146.611,"EPHEMERIS_TYPE":0,"NORAD_CAT_ID":62636,"ELEMENT_SET_NO":999,"REV_AT_EPOCH":8300,"BSTAR":0.0012515492,"MEAN_MOTION_DOT":0.00101756,"MEAN_MOTION_DDOT":0},{"OBJECT_NAME":"FLOCK 4G-24","OBJECT_ID":"2025-009AE","EPOCH":"2026-07-12T04:32:16.372896","CLASSIFICATION_TYPE":"U","MEAN_MOTION":15.3032909,"ECCENTRICITY":0.000336,"INCLINATION":97.4028,"RA_OF_ASC_NODE":275.3806,"ARG_OF_PERICENTER":174.0944,"MEAN_ANOMALY":186.0337,"EPHEMERIS_TYPE":0,"NORAD_CAT_ID":62637,"ELEMENT_SET_NO":999,"REV_AT_EPOCH":8275,"BSTAR":0.00020190907,"MEAN_MOTION_DOT":0.00005847,"MEAN_MOTION_DDOT":0},{"OBJECT_NAME":"FLOCK 4G-3","OBJECT_ID":"2025-009AG","EPOCH":"2026-07-12T04:21:03.660768","CLASSIFICATION_TYPE":"U","MEAN_MOTION":15.29833595,"ECCENTRICITY":0.00029096,"INCLINATION":97.4029,"RA_OF_ASC_NODE":275.0832,"ARG_OF_PERICENTER":178.3696,"MEAN_ANOMALY":181.7555,"EPHEMERIS_TYPE":0,"NORAD_CAT_ID":62639,"ELEMENT_SET_NO":999,"REV_AT_EPOCH":8272,"BSTAR":0.00022813994,"MEAN_MOTION_DOT":0.00006516,"MEAN_MOTION_DDOT":0},{"OBJECT_NAME":"FLOCK 4G-27","OBJECT_ID":"2025-009AJ","EPOCH":"2026-07-12T04:49:04.152864","CLASSIFICATION_TYPE":"U","MEAN_MOTION":15.29769551,"ECCENTRICITY":0.00022391,"INCLINATION":97.3939,"RA_OF_ASC_NODE":274.4544,"ARG_OF_PERICENTER":177.4853,"MEAN_ANOMALY":182.6399,"EPHEMERIS_TYPE":0,"NORAD_CAT_ID":62641,"ELEMENT_SET_NO":999,"REV_AT_EPOCH":8272,"BSTAR":0.00018989929,"MEAN_MOTION_DOT":0.00005399,"MEAN_MOTION_DDOT":0},{"OBJECT_NAME":"FLOCK 4G-29","OBJECT_ID":"2025-009AK","EPOCH":"2026-07-12T04:28:07.441536","CLASSIFICATION_TYPE":"U","MEAN_MOTION":15.29828267,"ECCENTRICITY":0.00031389,"INCLINATION":97.4025,"RA_OF_ASC_NODE":275.0482,"ARG_OF_PERICENTER":174.696,"MEAN_ANOMALY":185.4314,"EPHEMERIS_TYPE":0,"NORAD_CAT_ID":62642,"ELEMENT_SET_NO":999,"REV_AT_EPOCH":8272,"BSTAR":0.0001888484,"MEAN_MOTION_DOT":0.00005379,"MEAN_MOTION_DDOT":0},{"OBJECT_NAME":"FLOCK 4G-22","OBJECT_ID":"2025-009AN","EPOCH":"2026-07-12T12:45:25.208928","CLASSIFICATION_TYPE":"U","MEAN_MOTION":15.29737402,"ECCENTRICITY":0.0002798,"INCLINATION":97.401,"RA_OF_ASC_NODE":275.427,"ARG_OF_PERICENTER":168.7386,"MEAN_ANOMALY":191.3918,"EPHEMERIS_TYPE":0,"NORAD_CAT_ID":62645,"ELEMENT_SET_NO":999,"REV_AT_EPOCH":8279,"BSTAR":0.00021455,"MEAN_MOTION_DOT":0.00006104,"MEAN_MOTION_DDOT":0}]}
