FLOCK 4BE-3             
1 60561U 24149CX  26192.80697537  .00010865  00000+0  25410-3 0  9997
2 60561  97.3699 276.9663 0004575 178.8358 181.2901 15.42318303106136
FLOCK 4BE-19            
1 60563U 24149CZ  26192.80354855  .00014817  00000+0  31016-3 0  9992
2 60563  97.3739 278.6278 0005597 184.0624 176.0580 15.45532540106223
FLOCK 4G-8              
1 62613U 25009E   26193.19975764  .00005790  00000+0  20073-3 0  9998
2 62613  97.4010 275.1058 0003663 203.3541 156.7534 15.30205079 82749
FLOCK 4G-13             
1 62621U 25009N   26192.80296751  .00049350  00000+0  92463-3 0  9998
2 62621  97.3950 276.5753 0006198 206.6212 153.4721 15.48502962 82803
FLOCK 4G-9              
1 62622U 25009P   26192.76082065  .00005456  00000+0  19959-3 0  9993
2 62622  97.3961 273.5340 0003722 219.0607 141.0364 15.28471377 82619
FLOCK 4G-7              
1 62624U 25009R   26193.18311794  .00006687  00000+0  23431-3 0  9993
2 62624  97.3945 274.3645 0002275 190.7418 169.3775 15.29800472 82721
FLOCK 4G-12             
1 62625U 25009S   26193.17819778  .00006635  00000+0  23297-3 0  9991
2 62625  97.4024 274.9065 0003868 199.0506 161.0590 15.29732221 82722
FLOCK 4G-11             
1 62629U 25009W   26193.16327558  .00007086  00000+0  24780-3 0  9993
2 62629  97.3926 274.4537 0002325 194.6112 165.5062 15.29842005 82732
FLOCK 4G-26             
1 62633U 25009AA  26193.17722322  .00006993  00000+0  24322-3 0  9995
2 62633  97.4021 275.0655 0003338 187.5790 172.5400 15.30026524 82736
FLOCK 4G-28             
1 62634U 25009AB  26193.47903857  .00005578  00000+0  16536-3 0  9999
2 62634  97.4030 278.1294 0001859 168.3989 191.7297 15.35251499 82961
FLOCK 4G-20             
1 62636U 25009AD  26193.16597993  .00101756  00000+0  12515-2 0  9994
2 62636  97.3857 278.4657 0005944 213.4771 146.6110 15.59898255 83007
FLOCK 4G-24             
1 62637U 25009AE  26193.18907839  .00005847  00000+0  20191-3 0  9995
2 62637  97.4028 275.3806 0003360 174.0944 186.0337 15.30329090 82750
FLOCK 4G-3              
1 62639U 25009AG  26193.18129237  .00006516  00000+0  22814-3 0  9993
2 62639  97.4029 275.0832 0002909 178.3696 181.7555 15.29833595 82727
FLOCK 4G-27             
1 62641U 25009AJ  26193.20074251  .00005399  00000+0  18990-3 0  9992
2 62641  97.3939 274.4544 0002239 177.4853 182.6399 15.29769551 82729
FLOCK 4G-29             
1 62642U 25009AK  26193.18619724  .00005379  00000+0  18885-3 0  9991
2 62642  97.4025 275.0482 0003138 174.6960 185.4314 15.29828267 82720
FLOCK 4G-22             
1 62645U 25009AN  26193.53154178  .00006104  00000+0  21455-3 0  9994
2 62645  97.4010 275.4270 0002797 168.7386 191.3918 15.29737402 82795
